{
  "type": "FeatureCollection",
  "features": [
    {
      "type": "Feature",
      "properties": {
        "norad_id": 41556,
        "name": "ZIYUAN 3-2 (ZY 3-2)",
        "group": "resource",
        "lat": 81.17358942559791,
        "lon": -58.20882811301936,
        "alt_km": 500.3816301416746,
        "timestamp": "2025-12-16T19:34:23.922357+00:00",
        "meta_object_name": "ZIYUAN 3-2 (ZY 3-2)",
        "meta_object_id": "2016-033A",
        "meta_epoch": "2025-12-16T06:31:36.719328",
        "meta_mean_motion": 15.21108786,
        "meta_eccentricity": 0.0010775,
        "meta_inclination": 97.4043,
        "meta_ra_of_asc_node": 64.3816,
        "meta_arg_of_pericenter": 232.6392,
        "meta_mean_anomaly": 127.3863,
        "meta_ephemeris_type": 0,
        "meta_classification_type": "U",
        "meta_norad_cat_id": 41556,
        "meta_element_set_no": 999,
        "meta_rev_at_epoch": 53017,
        "meta_bstar": 0.00023217,
        "meta_mean_motion_dot": 5.103e-05,
        "meta_mean_motion_ddot": 0,
        "tle_line1": "1 41556U 16033A   25350.27195277  .00005103  00000+0  23217-3 0  9995",
        "tle_line2": "2 41556  97.4043  64.3816 0010775 232.6392 127.3863 15.21108786530170"
      },
      "geometry": {
        "type": "Point",
        "coordinates": [
          -58.20882811301936,
          81.17358942559791
        ]
      }
    },
    {
      "type": "Feature",
      "properties": {
        "norad_id": 41599,
        "name": "CARTOSAT-2C",
        "group": "resource",
        "lat": 6.249391032008942,
        "lon": 47.20042545003048,
        "alt_km": 504.901647253615,
        "timestamp": "2025-12-16T19:34:23.922368+00:00",
        "meta_object_name": "CARTOSAT-2C",
        "meta_object_id": "2016-040A",
        "meta_epoch": "2025-12-15T22:59:41.434080",
        "meta_mean_motion": 15.19148416,
        "meta_eccentricity": 0.00114153,
        "meta_inclination": 97.4772,
        "meta_ra_of_asc_node": 47.1759,
        "meta_arg_of_pericenter": 52.781,
        "meta_mean_anomaly": 307.4464,
        "meta_ephemeris_type": 0,
        "meta_classification_type": "U",
        "meta_norad_cat_id": 41599,
        "meta_element_set_no": 999,
        "meta_rev_at_epoch": 52589,
        "meta_bstar": 0.0002380429,
        "meta_mean_motion_dot": 4.942e-05,
        "meta_mean_motion_ddot": 0,
        "tle_line1": "1 41599U 16040A   25349.95811845  .00004942  00000+0  23804-3 0  9991",
        "tle_line2": "2 41599  97.4772  47.1759 0011415  52.7810 307.4464 15.19148416525891"
      },
      "geometry": {
        "type": "Point",
        "coordinates": [
          47.20042545003048,
          6.249391032008942
        ]
      }
    },
    {
      "type": "Feature",
      "properties": {
        "norad_id": 41601,
        "name": "SKYSAT-C1",
        "group": "resource",
        "lat": -75.68256157326208,
        "lon": 178.8996201602375,
        "alt_km": 475.5825684970441,
        "timestamp": "2025-12-16T19:34:23.922378+00:00",
        "meta_object_name": "SKYSAT-C1",
        "meta_object_id": "2016-040C",
        "meta_epoch": "2025-12-15T20:30:58.322880",
        "meta_mean_motion": 15.32649899,
        "meta_eccentricity": 0.0002005,
        "meta_inclination": 96.9827,
        "meta_ra_of_asc_node": 26.6932,
        "meta_arg_of_pericenter": 6.0946,
        "meta_mean_anomaly": 354.0321,
        "meta_ephemeris_type": 0,
        "meta_classification_type": "U",
        "meta_norad_cat_id": 41601,
        "meta_element_set_no": 999,
        "meta_rev_at_epoch": 52975,
        "meta_bstar": 0.00023555796,
        "meta_mean_motion_dot": 7.355e-05,
        "meta_mean_motion_ddot": 0,
        "tle_line1": "1 41601U 16040C   25349.85484170  .00007355  00000+0  23556-3 0  9996",
        "tle_line2": "2 41601  96.9827  26.6932 0002005   6.0946 354.0321 15.32649899529757"
      },
      "geometry": {
        "type": "Point",
        "coordinates": [
          178.8996201602375,
          -75.68256157326208
        ]
      }
    },
    {
      "type": "Feature",
      "properties": {
        "norad_id": 41603,
        "name": "LAPAN-A3",
        "group": "resource",
        "lat": 25.495234468912283,
        "lon": -15.204453812017695,
        "alt_km": 467.9506734070519,
        "timestamp": "2025-12-16T19:34:23.922389+00:00",
        "meta_object_name": "LAPAN-A3",
        "meta_object_id": "2016-040E",
        "meta_epoch": "2025-12-15T23:04:37.989984",
        "meta_mean_motion": 15.3157944,
        "meta_eccentricity": 0.00093366,
        "meta_inclination": 97.1426,
        "meta_ra_of_asc_node": 347.4008,
        "meta_arg_of_pericenter": 321.1522,
        "meta_mean_anomaly": 38.9048,
        "meta_ephemeris_type": 0,
        "meta_classification_type": "U",
        "meta_norad_cat_id": 41603,
        "meta_element_set_no": 999,
        "meta_rev_at_epoch": 52675,
        "meta_bstar": 0.00011498009,
        "meta_mean_motion_dot": 3.436e-05,
        "meta_mean_motion_ddot": 0,
        "tle_line1": "1 41603U 16040E   25349.96155081  .00003436  00000+0  11498-3 0  9994",
        "tle_line2": "2 41603  97.1426 347.4008 0009336 321.1522  38.9048 15.31579440526754"
      },
      "geometry": {
        "type": "Point",
        "coordinates": [
          -15.204453812017695,
          25.495234468912283
        ]
      }
    },
    {
      "type": "Feature",
      "properties": {
        "norad_id": 41604,
        "name": "BIROS",
        "group": "resource",
        "lat": -7.584100078601793,
        "lon": 23.363417451552987,
        "alt_km": 305.2043976770983,
        "timestamp": "2025-12-16T19:34:23.922399+00:00",
        "meta_object_name": "BIROS",
        "meta_object_id": "2016-040F",
        "meta_epoch": "2025-12-15T01:20:12.221664",
        "meta_mean_motion": 15.90659584,
        "meta_eccentricity": 0.00036552,
        "meta_inclination": 97.068,
        "meta_ra_of_asc_node": 20.5828,
        "meta_arg_of_pericenter": 143.3286,
        "meta_mean_anomaly": 216.8239,
        "meta_ephemeris_type": 0,
        "meta_classification_type": "U",
        "meta_norad_cat_id": 41604,
        "meta_element_set_no": 999,
        "meta_rev_at_epoch": 52909,
        "meta_bstar": 0.00047663709,
        "meta_mean_motion_dot": 0.00145956,
        "meta_mean_motion_ddot": 9.714412e-06,
        "tle_line1": "1 41604U 16040F   25349.05569701  .00145956  97144-5  47664-3 0  9992",
        "tle_line2": "2 41604  97.0680  20.5828 0003655 143.3286 216.8239 15.90659584529096"
      },
      "geometry": {
        "type": "Point",
        "coordinates": [
          23.363417451552987,
          -7.584100078601793
        ]
      }
    },
    {
      "type": "Feature",
      "properties": {
        "norad_id": 41727,
        "name": "GAOFEN-3",
        "group": "resource",
        "lat": -64.53376894889095,
        "lon": 14.424804466972489,
        "alt_km": 758.9131759655829,
        "timestamp": "2025-12-16T19:34:23.922409+00:00",
        "meta_object_name": "GAOFEN-3",
        "meta_object_id": "2016-049A",
        "meta_epoch": "2025-12-15T23:53:50.714304",
        "meta_mean_motion": 14.42214743,
        "meta_eccentricity": 0.00013283,
        "meta_inclination": 98.4043,
        "meta_ra_of_asc_node": 355.5327,
        "meta_arg_of_pericenter": 60.3551,
        "meta_mean_anomaly": 299.7771,
        "meta_ephemeris_type": 0,
        "meta_classification_type": "U",
        "meta_norad_cat_id": 41727,
        "meta_element_set_no": 999,
        "meta_rev_at_epoch": 49224,
        "meta_bstar": 4.3779225e-05,
        "meta_mean_motion_dot": 1.01e-06,
        "meta_mean_motion_ddot": 0,
        "tle_line1": "1 41727U 16049A   25349.99572586  .00000101  00000+0  43779-4 0  9990",
        "tle_line2": "2 41727  98.4043 355.5327 0001328  60.3551 299.7771 14.42214743492240"
      },
      "geometry": {
        "type": "Point",
        "coordinates": [
          14.424804466972489,
          -64.53376894889095
        ]
      }
    },
    {
      "type": "Feature",
      "properties": {
        "norad_id": 41771,
        "name": "SKYSAT-C4",
        "group": "resource",
        "lat": -25.427856050132966,
        "lon": 19.12433874795368,
        "alt_km": 445.9726455495156,
        "timestamp": "2025-12-16T19:34:23.922419+00:00",
        "meta_object_name": "SKYSAT-C4",
        "meta_object_id": "2016-058B",
        "meta_epoch": "2025-12-15T12:32:32.363520",
        "meta_mean_motion": 15.42334292,
        "meta_eccentricity": 0.00017541,
        "meta_inclination": 96.9376,
        "meta_ra_of_asc_node": 14.5751,
        "meta_arg_of_pericenter": 133.0259,
        "meta_mean_anomaly": 227.1136,
        "meta_ephemeris_type": 0,
        "meta_classification_type": "U",
        "meta_norad_cat_id": 41771,
        "meta_element_set_no": 999,
        "meta_rev_at_epoch": 51710,
        "meta_bstar": 0.00024142398,
        "meta_mean_motion_dot": 0.00010328,
        "meta_mean_motion_ddot": 0,
        "tle_line1": "1 41771U 16058B   25349.52259680  .00010328  00000+0  24142-3 0  9999",
        "tle_line2": "2 41771  96.9376  14.5751 0001754 133.0259 227.1136 15.42334292517106"
      },
      "geometry": {
        "type": "Point",
        "coordinates": [
          19.12433874795368,
          -25.427856050132966
        ]
      }
    }
  ]
}